ONEWEB-0110
1 47260U 20100C   24154.48334685  .00000488  00000+0  13229-2 0  9997
2 47260  87.8924 138.9291 0002183  85.7660 274.3718 13.12317656167043
ONEWEB-0118
1 47264U 20100G   24154.95136497  .00000402  00000+0  10830-2 0  9995
2 47264  87.8929 138.8265 0001678  75.4427 284.6887 13.12446020167103
ONEWEB-0125
1 47271U 20100P   24154.48813719  .00000490  00000+0  13290-2 0  9990
2 47271  87.8931 138.9110 0001735  92.7991 267.3336 13.12305067166950
ONEWEB-0128
1 47274U 20100S   24155.18491349  .00000404  00000+0  10883-2 0  9992
2 47274  87.8938 138.8100 0002336  88.2082 271.9314 13.12436094167152
ONEWEB-0131
1 47277U 20100V   24155.03659217  .00000255  00000+0  67268-3 0  9993
2 47277  87.8932 138.8298 0002211  87.7291 272.4090 13.12579549167076
ONEWEB-0135
1 47281U 20100Z   24155.47773805  .00000409  00000+0  11043-2 0  9996
2 47281  87.8932 138.7465 0002578  85.7698 274.3725 13.12308514167181
ONEWEB-0139
1 47285U 20100AD  24155.48381395  .00000490  00000+0  13269-2 0  9992
2 47285  87.8932 138.7238 0002095  85.6073 274.5295 13.12376671167175
ONEWEB-0141
1 47287U 20100AF  24154.93497880  .00000407  00000+0  11227-2 0  9990
2 47287  87.8928 138.8442 0001859  87.3055 272.8285 13.10832766167053
ONEWEB-0143
1 47289U 20100AH  24154.48117416  .00000471  00000+0  12722-2 0  9998
2 47289  87.8928 138.9382 0002039  87.3451 272.7911 13.12471673166962
ONEWEB-0145
1 47291U 20100AK  24154.50138816  .00000089  00000+0  21168-3 0  9991
2 47291  87.8928 138.9419 0002130  83.0813 277.0558 13.12580829167086
ONEWEB-0146
1 47292U 20100AL  24155.48824763  .00000371  00000+0  99657-3 0  9995
2 47292  87.8929 138.7289 0002066  98.6739 261.4624 13.12440246167122
ONEWEB-0286
1 49076U 21075B   24154.50009747  .00000160  00000+0  40964-3 0  9991
2 49076  87.8926 138.9385 0001731  83.2281 276.9045 13.12509728136888
ONEWEB-0288
1 49078U 21075D   24155.24738569  .00000374  00000+0  10053-2 0  9998
2 49078  87.8925 138.7936 0001986  81.3146 278.8207 13.12316799138595
ONEWEB-0294
1 49083U 21075J   24154.49133538  .00000444  00000+0  12000-2 0  9997
2 49083  87.8925 138.9429 0002300  69.1422 290.9952 13.12302226136895
ONEWEB-0300
1 49089U 21075Q   24155.48666055  .00000384  00000+0  10316-2 0  9999
2 49089  87.8925 138.7429 0002134  97.1103 263.0268 13.12444648138642
ONEWEB-0301
1 49090U 21075R   24155.47063541  .00000498  00000+0  13485-2 0  9997
2 49090  87.8926 138.7493 0002100  95.1297 265.0071 13.12475641138002
ONEWEB-0628
1 55169U 23004AF  24154.94720976  .00000520  00000+0  14136-2 0  9998
2 55169  87.8932 138.8163 0001156  94.7992 265.3268 13.12302108 70413
